{"type":"FeatureCollection","_comment":"DISPLAY-ONLY boundary for the pilot region (Landkreis Uckermark). Derived from ingest/pilot/uckermark-12073.geojson by Douglas-Peucker simplification at 25 m in EPSG:25832, then transformed to EPSG:4326 for MapLibre. NOT an analysis input: 04_generate_grid.sql clips against the full-precision EPSG:25832 file, never this one. Regenerate with ingest/02c_pilot_boundary_display.sh. Source BKG VG25, CC BY 4.0 — attribution required, see docs/data/sources.md §3.","bbox":[13.23985,52.931607,14.450527,53.559062],"features":[{"type":"Feature","properties":{"pilot_region":"uckermark","name":"Uckermark","ags":"12073","source":"BKG VG25","licence":"CC BY 4.0","simplified_m":25.0,"attribution":"© BKG <Jahr> CC BY 4.0","attribution_url":"https://creativecommons.org/licenses/by/4.0","retrieved":"2026-09-19"},"geometry":{"type":"Polygon","coordinates":[[[13.815737,53.057163],[13.819153,53.053369],[13.819219,53.05045],[13.817846,53.04888],[13.813163,53.045773],[13.810867,53.045916],[13.804697,53.04822],[13.802205,53.048321],[13.798929,53.047852],[13.795805,53.048907],[13.792962,53.048852],[13.791383,53.049204],[13.787081,53.046479],[13.782437,53.046654],[13.777327,53.045413],[13.772127,53.045353],[13.76911,53.044757],[13.767909,53.043949],[13.764704,53.043387],[13.763913,53.044378],[13.760235,53.042889],[13.754887,53.042134],[13.752711,53.041368],[13.750434,53.039809],[13.746148,53.040748],[13.745227,53.041921],[13.741646,53.043133],[13.738135,53.043177],[13.734635,53.044469],[13.733805,53.043985],[13.732427,53.040353],[13.73097,53.0403],[13.729439,53.040974],[13.726192,53.039802],[13.723151,53.040356],[13.718701,53.039491],[13.717133,53.039819],[13.715135,53.038245],[13.712541,53.03743],[13.712808,53.035911],[13.711221,53.034937],[13.704854,53.037518],[13.700436,53.037704],[13.6971,53.03853],[13.69442,53.040057],[13.688398,53.041878],[13.682042,53.04252],[13.681328,53.038841],[13.678412,53.037131],[13.676417,53.037082],[13.677937,53.034311],[13.679848,53.033879],[13.680591,53.033019],[13.681884,53.030236],[13.681825,53.028704],[13.678821,53.029163],[13.678678,53.026098],[13.677914,53.025457],[13.675705,53.025561],[13.666704,53.0193],[13.66446,53.017565],[13.664572,53.015905],[13.665745,53.013545],[13.668146,53.014112],[13.672956,53.013473],[13.689589,53.014542],[13.691263,53.011565],[13.675798,53.002374],[13.675715,53.000937],[13.645439,53.000765],[13.620757,53.002969],[13.617562,53.000788],[13.613884,52.999611],[13.612655,52.999792],[13.610308,53.00155],[13.609301,53.001525],[13.608476,52.999523],[13.607417,52.998891],[13.605659,52.998292],[13.603518,52.998377],[13.599461,52.997192],[13.597952,52.997363],[13.595568,52.999682],[13.596201,52.997857],[13.598828,52.996575],[13.595736,52.995478],[13.593239,52.996095],[13.59217,52.994891],[13.591229,52.994554],[13.583552,52.993112],[13.579762,52.991844],[13.578146,52.992334],[13.576853,52.993522],[13.576707,52.994129],[13.577887,52.996127],[13.573484,52.996217],[13.57214,52.995625],[13.573665,52.991448],[13.57005,52.990932],[13.564558,52.989356],[13.552972,52.988688],[13.547683,52.98973],[13.54247,52.990237],[13.543297,52.991935],[13.541357,52.992456],[13.540594,52.988834],[13.532025,52.989427],[13.529472,52.989764],[13.528637,52.990293],[13.526274,52.989821],[13.524912,52.988657],[13.5253,52.98849],[13.524772,52.987947],[13.52353,52.987412],[13.521141,52.987621],[13.519648,52.988364],[13.512501,52.98881],[13.512467,52.98708],[13.491377,52.986963],[13.491362,52.989829],[13.495367,52.990022],[13.501117,52.998654],[13.499858,52.998152],[13.498505,52.998303],[13.496673,52.996877],[13.496784,53.001508],[13.486791,53.001822],[13.485342,53.008794],[13.463636,53.007073],[13.461098,53.007544],[13.456818,53.012814],[13.456946,53.015877],[13.451972,53.021842],[13.445625,53.024997],[13.44439,53.029564],[13.440551,53.028219],[13.43856,53.027096],[13.435574,53.024068],[13.432675,53.023306],[13.428248,53.023051],[13.426689,53.023394],[13.413496,53.023582],[13.410481,53.024957],[13.406648,53.025237],[13.402598,53.031365],[13.407625,53.039543],[13.407208,53.040113],[13.409761,53.042716],[13.410907,53.044661],[13.410327,53.045144],[13.410856,53.045899],[13.410269,53.047316],[13.408982,53.048372],[13.408191,53.048327],[13.410517,53.050589],[13.415487,53.053499],[13.414032,53.054995],[13.414068,53.056309],[13.412789,53.056025],[13.410576,53.057551],[13.410135,53.057422],[13.408464,53.058175],[13.409079,53.058522],[13.404253,53.058635],[13.400259,53.058295],[13.398875,53.058903],[13.3985,53.059648],[13.393394,53.059487],[13.38993,53.060288],[13.388147,53.061188],[13.386296,53.063742],[13.386064,53.065121],[13.384233,53.066251],[13.383078,53.067781],[13.382044,53.068112],[13.379324,53.067913],[13.379558,53.068484],[13.378327,53.069838],[13.377974,53.069648],[13.378933,53.068051],[13.377052,53.067436],[13.375536,53.067411],[13.369645,53.068634],[13.368953,53.06912],[13.36945,53.069275],[13.368653,53.069426],[13.368566,53.071904],[13.369005,53.072283],[13.371229,53.072365],[13.371531,53.072735],[13.371851,53.07452],[13.371431,53.074917],[13.370057,53.074946],[13.37168,53.076702],[13.368915,53.07897],[13.366468,53.079184],[13.367205,53.080154],[13.366547,53.081094],[13.367339,53.081749],[13.365671,53.082147],[13.365458,53.083256],[13.363465,53.083918],[13.363069,53.084843],[13.361953,53.085013],[13.361957,53.085591],[13.363129,53.086623],[13.363053,53.087389],[13.359449,53.088072],[13.359076,53.089398],[13.357434,53.089689],[13.357441,53.090904],[13.352404,53.091259],[13.351691,53.091608],[13.351614,53.09274],[13.349963,53.093213],[13.350743,53.094463],[13.349124,53.09612],[13.347179,53.095599],[13.345159,53.097048],[13.343977,53.09725],[13.34071,53.097165],[13.339043,53.096615],[13.336616,53.096402],[13.332887,53.096851],[13.332222,53.097689],[13.33051,53.097622],[13.329798,53.09865],[13.327392,53.09924],[13.326252,53.100606],[13.323063,53.101054],[13.321573,53.102134],[13.321511,53.102849],[13.324055,53.104194],[13.324184,53.105146],[13.322596,53.107447],[13.321877,53.110897],[13.320505,53.11148],[13.317152,53.111612],[13.314738,53.112942],[13.314698,53.116423],[13.312623,53.117588],[13.311077,53.119913],[13.310799,53.121362],[13.307335,53.122927],[13.30645,53.124158],[13.30372,53.12448],[13.301735,53.126579],[13.297867,53.12696],[13.29685,53.128403],[13.298389,53.130444],[13.297533,53.131236],[13.295073,53.131821],[13.294066,53.1327],[13.294252,53.133465],[13.29583,53.13419],[13.295691,53.134978],[13.294078,53.135761],[13.292152,53.13611],[13.287614,53.136417],[13.288123,53.137612],[13.289918,53.138093],[13.290785,53.138932],[13.292093,53.138667],[13.295109,53.13959],[13.294733,53.140419],[13.295731,53.140709],[13.296099,53.141674],[13.297189,53.141526],[13.296626,53.140742],[13.297211,53.140576],[13.298363,53.141041],[13.301911,53.140534],[13.302416,53.141211],[13.301582,53.141866],[13.297856,53.142509],[13.297678,53.143098],[13.296066,53.142782],[13.295631,53.141846],[13.294304,53.140909],[13.287224,53.139545],[13.303271,53.155047],[13.294109,53.158721],[13.313572,53.177059],[13.311916,53.176812],[13.309976,53.177807],[13.310116,53.178255],[13.313362,53.178763],[13.307911,53.178456],[13.305211,53.178756],[13.297484,53.182281],[13.293007,53.183408],[13.28879,53.185488],[13.288055,53.185097],[13.285975,53.185488],[13.283158,53.186851],[13.283473,53.188011],[13.287023,53.189355],[13.288722,53.189579],[13.291061,53.192468],[13.292503,53.192746],[13.293234,53.192424],[13.288897,53.194826],[13.288913,53.196083],[13.289712,53.196792],[13.289128,53.19719],[13.283848,53.196283],[13.279022,53.19403],[13.279828,53.193651],[13.279308,53.192975],[13.276506,53.192412],[13.276386,53.191902],[13.274914,53.191095],[13.272782,53.19103],[13.272227,53.190231],[13.271356,53.191508],[13.27237,53.193198],[13.277851,53.195905],[13.276952,53.196707],[13.275939,53.199255],[13.274195,53.200924],[13.274178,53.202844],[13.270623,53.203813],[13.269299,53.204994],[13.268428,53.204608],[13.266904,53.204688],[13.266465,53.20548],[13.265454,53.205892],[13.264101,53.205511],[13.262266,53.206529],[13.257886,53.204796],[13.252517,53.20504],[13.252621,53.205688],[13.247383,53.205219],[13.246979,53.209251],[13.243248,53.212708],[13.241477,53.212985],[13.249533,53.217104],[13.251755,53.219856],[13.250314,53.220229],[13.251051,53.220844],[13.250227,53.222471],[13.246156,53.225726],[13.244914,53.227874],[13.245017,53.228878],[13.242889,53.229393],[13.243406,53.232337],[13.246606,53.233771],[13.246344,53.235167],[13.244467,53.236667],[13.243437,53.237052],[13.242482,53.236902],[13.241648,53.236312],[13.242873,53.234875],[13.242884,53.233995],[13.241387,53.231989],[13.240751,53.232012],[13.24103,53.236097],[13.242844,53.237291],[13.242155,53.23779],[13.23985,53.237511],[13.241579,53.23985],[13.243814,53.239023],[13.248059,53.242671],[13.245659,53.243636],[13.248611,53.244534],[13.250225,53.245552],[13.25106,53.246739],[13.250892,53.247622],[13.248512,53.248709],[13.247971,53.248486],[13.247679,53.247133],[13.246811,53.246734],[13.244962,53.24701],[13.24395,53.248398],[13.246323,53.250172],[13.245723,53.250758],[13.246566,53.252471],[13.246784,53.254696],[13.247788,53.256189],[13.25376,53.259692],[13.253805,53.261282],[13.253,53.262115],[13.25528,53.261571],[13.255264,53.261108],[13.257275,53.26141],[13.25857,53.261151],[13.26041,53.262628],[13.262014,53.263033],[13.262426,53.26375],[13.263693,53.263514],[13.265086,53.264098],[13.266496,53.264141],[13.269277,53.264073],[13.270636,53.263653],[13.27552,53.265203],[13.278253,53.270077],[13.280473,53.271527],[13.283988,53.272874],[13.283441,53.273928],[13.285088,53.275635],[13.28622,53.276188],[13.287046,53.276113],[13.288909,53.275042],[13.290179,53.276097],[13.291642,53.276746],[13.292366,53.276691],[13.292994,53.27741],[13.296101,53.278544],[13.296737,53.280121],[13.297733,53.280737],[13.298954,53.280827],[13.301379,53.280026],[13.308085,53.278858],[13.315616,53.27797],[13.324472,53.275592],[13.337992,53.273296],[13.341137,53.273411],[13.340225,53.276189],[13.348045,53.278048],[13.353843,53.27819],[13.360734,53.277841],[13.364105,53.27588],[13.368854,53.270719],[13.36995,53.268347],[13.37058,53.26187],[13.372896,53.260472],[13.377056,53.256916],[13.382276,53.250358],[13.385351,53.250719],[13.386069,53.250358],[13.386302,53.249059],[13.384716,53.248289],[13.385158,53.245688],[13.386169,53.244282],[13.388934,53.242684],[13.392208,53.243231],[13.393342,53.243627],[13.393664,53.244181],[13.394679,53.244297],[13.395861,53.245148],[13.395953,53.246169],[13.397153,53.246935],[13.398921,53.245852],[13.40182,53.245669],[13.405445,53.246525],[13.405984,53.248428],[13.404012,53.249073],[13.403801,53.249645],[13.404803,53.250619],[13.404562,53.252056],[13.405876,53.253315],[13.405866,53.254753],[13.407754,53.25604],[13.407655,53.256993],[13.408696,53.258227],[13.407773,53.259461],[13.408119,53.261012],[13.409741,53.262282],[13.408555,53.263012],[13.410144,53.263541],[13.41175,53.263337],[13.413027,53.263586],[13.414257,53.264316],[13.415151,53.266221],[13.417113,53.26733],[13.417677,53.268296],[13.420525,53.269079],[13.427146,53.276875],[13.427139,53.279027],[13.428864,53.280028],[13.427487,53.28131],[13.428197,53.28216],[13.431756,53.284314],[13.433314,53.282822],[13.435371,53.282874],[13.436856,53.284117],[13.438158,53.28387],[13.439448,53.285078],[13.440198,53.284843],[13.442469,53.286557],[13.44173,53.287501],[13.438709,53.287311],[13.437419,53.288332],[13.437268,53.289143],[13.43542,53.28884],[13.434303,53.290051],[13.435927,53.290987],[13.437957,53.29081],[13.438871,53.291794],[13.43811,53.29244],[13.436434,53.292246],[13.435258,53.29442],[13.438031,53.297177],[13.437426,53.298377],[13.439264,53.299568],[13.441905,53.297901],[13.444989,53.29824],[13.447285,53.297964],[13.44919,53.298325],[13.453487,53.298205],[13.456625,53.297337],[13.456076,53.296558],[13.456267,53.292937],[13.457312,53.292075],[13.457647,53.290987],[13.460047,53.289936],[13.45951,53.289266],[13.460599,53.288587],[13.463833,53.28889],[13.466687,53.289753],[13.472342,53.290002],[13.478151,53.291437],[13.479712,53.291104],[13.483535,53.291141],[13.484895,53.291875],[13.486237,53.29207],[13.486077,53.292857],[13.487793,53.293793],[13.488303,53.295578],[13.491649,53.297106],[13.492867,53.299385],[13.493854,53.299423],[13.497362,53.301958],[13.496178,53.306217],[13.501766,53.31278],[13.50708,53.316605],[13.506959,53.317789],[13.5054,53.319154],[13.506319,53.320289],[13.505361,53.320276],[13.502149,53.324099],[13.501803,53.325752],[13.502673,53.326794],[13.502563,53.327548],[13.50472,53.327032],[13.50513,53.326489],[13.504785,53.325298],[13.508197,53.323126],[13.51064,53.319097],[13.510311,53.317702],[13.51711,53.318026],[13.520836,53.318634],[13.523755,53.31997],[13.521067,53.332083],[13.521074,53.33344],[13.523028,53.33475],[13.521329,53.335453],[13.51941,53.337993],[13.520285,53.341079],[13.523244,53.342001],[13.523861,53.341479],[13.524142,53.341903],[13.525778,53.347989],[13.525248,53.350976],[13.516641,53.352069],[13.523965,53.362577],[13.525876,53.367254],[13.528493,53.366749],[13.534,53.364267],[13.543365,53.363964],[13.546494,53.369351],[13.546518,53.370699],[13.547823,53.372248],[13.556069,53.375949],[13.55669,53.379415],[13.556159,53.379774],[13.551096,53.380021],[13.550004,53.381083],[13.550757,53.381694],[13.551542,53.381386],[13.552712,53.3816],[13.553986,53.38282],[13.553748,53.384698],[13.555905,53.386578],[13.554669,53.389482],[13.556546,53.391104],[13.556488,53.391708],[13.55488,53.392513],[13.553204,53.392661],[13.550043,53.392824],[13.548873,53.392192],[13.547304,53.392467],[13.545912,53.394236],[13.546527,53.395233],[13.548566,53.39579],[13.549563,53.395503],[13.549034,53.396672],[13.550237,53.39928],[13.555421,53.400295],[13.557218,53.401236],[13.558813,53.400959],[13.560433,53.399769],[13.561368,53.400637],[13.563522,53.40052],[13.564203,53.401627],[13.566211,53.403078],[13.567426,53.403361],[13.568708,53.402888],[13.570112,53.403442],[13.568967,53.403973],[13.569085,53.405302],[13.572531,53.407945],[13.579571,53.407568],[13.582657,53.408455],[13.585983,53.408642],[13.589125,53.409586],[13.59224,53.408052],[13.592978,53.408523],[13.595324,53.408923],[13.596143,53.410576],[13.598083,53.41082],[13.601817,53.410593],[13.604885,53.411279],[13.606301,53.411197],[13.606792,53.412727],[13.610547,53.413984],[13.61822,53.41362],[13.619229,53.413127],[13.620377,53.411695],[13.621553,53.408698],[13.622766,53.408331],[13.623726,53.408977],[13.625118,53.409182],[13.626187,53.409967],[13.625888,53.410771],[13.627973,53.412576],[13.627386,53.41344],[13.633017,53.419019],[13.633394,53.420237],[13.634579,53.420946],[13.634616,53.421784],[13.636446,53.423981],[13.629052,53.431969],[13.632129,53.432203],[13.633981,53.431798],[13.637873,53.432568],[13.636403,53.43423],[13.638935,53.438087],[13.633887,53.439912],[13.640889,53.447092],[13.643386,53.445825],[13.647972,53.44582],[13.649481,53.443941],[13.651213,53.443388],[13.650664,53.444376],[13.65268,53.447132],[13.657131,53.448071],[13.655501,53.44872],[13.655357,53.449517],[13.654033,53.450116],[13.653952,53.451304],[13.65831,53.453618],[13.661977,53.456308],[13.662745,53.457636],[13.664073,53.458274],[13.665084,53.457853],[13.67065,53.458946],[13.675013,53.46089],[13.677169,53.463372],[13.679679,53.464903],[13.681307,53.465551],[13.684888,53.465777],[13.688615,53.466986],[13.690915,53.467953],[13.696782,53.471566],[13.702132,53.473014],[13.705684,53.475002],[13.707762,53.476701],[13.711073,53.48009],[13.711513,53.481312],[13.713202,53.48118],[13.713525,53.481801],[13.718704,53.482715],[13.720156,53.481842],[13.721825,53.481448],[13.725365,53.482011],[13.726316,53.482764],[13.731448,53.48173],[13.735722,53.481571],[13.741133,53.486172],[13.745775,53.485166],[13.746175,53.484473],[13.748231,53.483679],[13.746853,53.481351],[13.753373,53.478172],[13.767187,53.476873],[13.771203,53.476158],[13.775611,53.476185],[13.778659,53.47524],[13.778715,53.47442],[13.780776,53.474166],[13.789807,53.475206],[13.789762,53.47567],[13.794055,53.476171],[13.799686,53.477948],[13.801645,53.478003],[13.802766,53.479227],[13.80563,53.480453],[13.810067,53.483502],[13.812092,53.484284],[13.815228,53.487597],[13.819384,53.491022],[13.821977,53.49474],[13.822708,53.494865],[13.826318,53.498634],[13.82607,53.498896],[13.825494,53.49902],[13.824648,53.49833],[13.823639,53.498717],[13.82262,53.498567],[13.822364,53.499643],[13.821462,53.500048],[13.818012,53.499424],[13.816143,53.499641],[13.814912,53.500378],[13.814506,53.501352],[13.812329,53.501822],[13.810754,53.50149],[13.810139,53.501803],[13.807704,53.501622],[13.801821,53.497858],[13.799984,53.498913],[13.799939,53.500986],[13.798378,53.501903],[13.795419,53.505725],[13.795341,53.506623],[13.791887,53.508516],[13.793062,53.509438],[13.793189,53.510771],[13.791509,53.511249],[13.788479,53.511438],[13.787197,53.51238],[13.78248,53.512973],[13.780694,53.512743],[13.779025,53.513269],[13.778451,53.51394],[13.77935,53.515665],[13.778496,53.515682],[13.778495,53.51619],[13.780201,53.520898],[13.780254,53.522966],[13.779021,53.524351],[13.778716,53.525648],[13.776265,53.527847],[13.776228,53.531376],[13.784064,53.551462],[13.791378,53.558797],[13.79333,53.558502],[13.794382,53.557755],[13.797003,53.557643],[13.798013,53.557789],[13.800005,53.559062],[13.800913,53.557937],[13.801104,53.555653],[13.802174,53.555338],[13.801089,53.5556],[13.799846,53.555143],[13.800362,53.554472],[13.799846,53.553628],[13.800167,53.551367],[13.798533,53.549277],[13.798899,53.546782],[13.798123,53.546191],[13.805998,53.540172],[13.807627,53.537465],[13.811003,53.534961],[13.813279,53.532024],[13.818754,53.526919],[13.821333,53.523431],[13.823598,53.521446],[13.823841,53.520557],[13.82308,53.518798],[13.821786,53.518095],[13.848417,53.514871],[13.87956,53.504031],[13.878734,53.50218],[13.87636,53.499924],[13.876995,53.49598],[13.874205,53.494137],[13.874768,53.493423],[13.873856,53.492812],[13.874345,53.491739],[13.873605,53.489869],[13.876352,53.487869],[13.876138,53.486528],[13.880475,53.487037],[13.885017,53.485551],[13.884672,53.484347],[13.881787,53.481127],[13.881615,53.480128],[13.878827,53.478191],[13.875517,53.473341],[13.917996,53.455764],[13.917332,53.452563],[13.918367,53.451343],[13.917983,53.450519],[13.918493,53.449473],[13.91833,53.448909],[13.91678,53.448074],[13.917413,53.44677],[13.915216,53.44597],[13.908898,53.445558],[13.90549,53.44495],[13.904624,53.443649],[13.905337,53.443549],[13.911977,53.43813],[13.911874,53.437077],[13.910701,53.435516],[13.905144,53.433348],[13.902851,53.43181],[13.905026,53.429657],[13.906213,53.427338],[13.907955,53.425944],[13.917663,53.421811],[13.918329,53.421719],[13.923275,53.423929],[13.924392,53.4255],[13.933106,53.426923],[13.93709,53.428924],[13.941894,53.429575],[13.946201,53.430902],[13.947805,53.43036],[13.953442,53.431083],[13.963016,53.430117],[13.965119,53.430691],[13.973391,53.431494],[13.980744,53.432769],[13.994751,53.433731],[14.001508,53.434927],[14.006602,53.430541],[14.021687,53.429678],[14.044396,53.429358],[14.045351,53.429719],[14.04847,53.418955],[14.050605,53.41401],[14.053988,53.412739],[14.05644,53.412528],[14.06031,53.413388],[14.060425,53.413775],[14.062533,53.413655],[14.068468,53.415102],[14.070848,53.415016],[14.078623,53.412895],[14.082085,53.410713],[14.083811,53.412377],[14.081941,53.414335],[14.081838,53.41534],[14.094216,53.422547],[14.095715,53.421669],[14.102464,53.422675],[14.105429,53.422591],[14.108392,53.428132],[14.121736,53.441726],[14.12634,53.440279],[14.133837,53.439106],[14.134729,53.439098],[14.136571,53.440912],[14.144999,53.436511],[14.14736,53.435794],[14.152413,53.433061],[14.154295,53.432579],[14.1558,53.431526],[14.167454,53.426455],[14.169781,53.425049],[14.17884,53.42259],[14.191683,53.422131],[14.204096,53.423464],[14.205852,53.423009],[14.212008,53.426173],[14.215044,53.429797],[14.224806,53.434287],[14.233062,53.42807],[14.235548,53.428919],[14.237567,53.427553],[14.237813,53.426554],[14.239713,53.424362],[14.242204,53.422251],[14.237371,53.414411],[14.241746,53.405968],[14.243436,53.398158],[14.243356,53.392367],[14.241373,53.386877],[14.236652,53.37949],[14.230879,53.367789],[14.227172,53.362938],[14.219499,53.354474],[14.203993,53.341079],[14.199154,53.338296],[14.184633,53.327954],[14.169195,53.318296],[14.135817,53.300486],[14.123814,53.291761],[14.113395,53.285357],[14.109972,53.282754],[14.104724,53.277025],[14.099105,53.261519],[14.114275,53.260563],[14.114288,53.261474],[14.117008,53.261145],[14.11715,53.260067],[14.12495,53.260457],[14.125108,53.260975],[14.128473,53.261252],[14.128457,53.261867],[14.131228,53.261957],[14.135429,53.263553],[14.136887,53.263447],[14.142963,53.265555],[14.147589,53.26588],[14.151193,53.266658],[14.1535,53.266667],[14.159989,53.267749],[14.163586,53.267418],[14.16772,53.26561],[14.167941,53.265198],[14.172562,53.264476],[14.176143,53.262026],[14.179483,53.26169],[14.182968,53.261969],[14.185383,53.261515],[14.185552,53.260824],[14.18722,53.2605],[14.190499,53.261337],[14.194875,53.261265],[14.195947,53.261916],[14.197967,53.26058],[14.200042,53.261882],[14.200971,53.261084],[14.201726,53.261058],[14.202813,53.259041],[14.207883,53.257937],[14.211107,53.254775],[14.227315,53.256921],[14.227998,53.255944],[14.229192,53.2558],[14.234921,53.256942],[14.241043,53.256911],[14.244255,53.257327],[14.247403,53.256824],[14.249317,53.25743],[14.251916,53.257067],[14.254038,53.257683],[14.264356,53.259073],[14.266014,53.259591],[14.26517,53.26388],[14.265165,53.265952],[14.265631,53.266194],[14.263885,53.272289],[14.261501,53.276744],[14.262064,53.276626],[14.267575,53.278123],[14.276093,53.280861],[14.287786,53.282998],[14.293013,53.284443],[14.293405,53.284042],[14.296072,53.284552],[14.30201,53.286281],[14.301261,53.287085],[14.301817,53.287367],[14.300742,53.288364],[14.305195,53.293908],[14.309389,53.297662],[14.310841,53.299829],[14.311412,53.299928],[14.311027,53.300149],[14.313023,53.30235],[14.312622,53.30321],[14.31335,53.304396],[14.315652,53.306553],[14.315973,53.307476],[14.315205,53.308963],[14.315867,53.309059],[14.316195,53.312222],[14.325241,53.311479],[14.328887,53.311744],[14.339534,53.310419],[14.347535,53.310038],[14.348267,53.310223],[14.348167,53.310742],[14.350411,53.31373],[14.362299,53.315159],[14.361779,53.317632],[14.366345,53.317476],[14.370212,53.315375],[14.375674,53.315598],[14.380402,53.319737],[14.380869,53.323579],[14.386203,53.325075],[14.393575,53.328382],[14.399574,53.329863],[14.40723,53.33016],[14.412181,53.329595],[14.415515,53.3243],[14.413701,53.320217],[14.406789,53.308755],[14.409946,53.305674],[14.415038,53.301813],[14.417342,53.288533],[14.421176,53.276147],[14.434412,53.275829],[14.445274,53.274426],[14.444385,53.272228],[14.44878,53.267017],[14.450527,53.262677],[14.449657,53.259557],[14.442626,53.255647],[14.436005,53.249623],[14.434657,53.247367],[14.434012,53.242638],[14.431812,53.239936],[14.428495,53.23767],[14.421371,53.234375],[14.416838,53.230896],[14.408698,53.223378],[14.407945,53.220108],[14.407661,53.214076],[14.405895,53.210649],[14.402693,53.208327],[14.398962,53.206653],[14.394373,53.205691],[14.39155,53.20579],[14.385788,53.204995],[14.381328,53.203728],[14.377428,53.201847],[14.374487,53.187773],[14.369677,53.18196],[14.370085,53.180191],[14.366147,53.172099],[14.367828,53.167467],[14.3697,53.164896],[14.369777,53.160216],[14.371261,53.157136],[14.374202,53.15372],[14.379727,53.149419],[14.382668,53.145876],[14.387299,53.142244],[14.385182,53.139446],[14.384813,53.138159],[14.383229,53.136763],[14.383751,53.134233],[14.381706,53.131563],[14.382211,53.129444],[14.381083,53.128272],[14.380427,53.124265],[14.381177,53.123217],[14.380572,53.120612],[14.380735,53.118101],[14.378987,53.112343],[14.370269,53.10472],[14.369875,53.101037],[14.371267,53.09693],[14.371233,53.094251],[14.369789,53.090364],[14.369817,53.08826],[14.367433,53.086346],[14.368233,53.084869],[14.366166,53.079727],[14.358896,53.072486],[14.357897,53.067867],[14.355381,53.065737],[14.355901,53.064603],[14.355371,53.063124],[14.352512,53.059119],[14.348378,53.056494],[14.348553,53.054707],[14.3459,53.052073],[14.344138,53.051454],[14.34325,53.050309],[14.338869,53.046972],[14.328962,53.042714],[14.326575,53.042834],[14.323416,53.041589],[14.320913,53.039118],[14.319143,53.038336],[14.317478,53.038161],[14.312441,53.035649],[14.306711,53.029567],[14.305951,53.029044],[14.303685,53.02858],[14.299846,53.026241],[14.297541,53.023641],[14.295026,53.022781],[14.293943,53.02138],[14.291444,53.019956],[14.28831,53.018679],[14.287187,53.018568],[14.283088,53.016071],[14.277762,53.014319],[14.275321,53.012484],[14.27281,53.012163],[14.26957,53.010542],[14.265173,53.00786],[14.263862,53.006058],[14.258819,53.003002],[14.257149,53.002439],[14.254721,53.002364],[14.250411,53.000784],[14.241463,52.995571],[14.23564,52.993305],[14.234219,52.99302],[14.231621,52.993241],[14.227798,52.99235],[14.225453,52.991022],[14.219229,52.988899],[14.216502,52.988905],[14.208192,52.987908],[14.198364,52.984549],[14.194954,52.981961],[14.18868,52.979539],[14.18139,52.977227],[14.17587,52.976629],[14.17127,52.975158],[14.168,52.973091],[14.167425,52.970401],[14.165684,52.967906],[14.16127,52.964856],[14.159444,52.964449],[14.15525,52.964665],[14.150818,52.963961],[14.145633,52.962705],[14.143524,52.961467],[14.141718,52.962855],[14.139322,52.96309],[14.138335,52.962605],[14.133676,52.962773],[14.128422,52.963723],[14.125237,52.965015],[14.125469,52.965613],[14.123907,52.96631],[14.123392,52.965153],[14.122159,52.964751],[14.121721,52.963832],[14.120796,52.963807],[14.120108,52.963157],[14.110525,52.96527],[14.107318,52.960635],[14.106812,52.960573],[14.101599,52.96115],[14.098994,52.960581],[14.096691,52.961021],[14.093241,52.960435],[14.090528,52.961474],[14.085414,52.962128],[14.08308,52.961435],[14.082574,52.960899],[14.079782,52.960622],[14.07297,52.958841],[14.072035,52.954228],[14.072858,52.951223],[14.073972,52.949652],[14.072899,52.949271],[14.062642,52.949013],[14.049603,52.950146],[14.049414,52.955048],[14.047482,52.955185],[14.04753,52.955452],[14.044251,52.955384],[14.027244,52.95653],[14.026296,52.954293],[14.023352,52.950256],[14.022382,52.944716],[14.020273,52.940601],[14.016069,52.935092],[14.014276,52.931607],[14.0116,52.932851],[14.009813,52.931679],[14.008721,52.932432],[14.005576,52.932904],[14.001865,52.931901],[14.000817,52.931944],[13.997828,52.933738],[13.996724,52.933758],[13.994076,52.933335],[13.991791,52.93187],[13.990076,52.933123],[13.990991,52.933731],[13.993404,52.933911],[13.995402,52.934722],[13.99485,52.936136],[13.990834,52.936716],[13.989693,52.937373],[13.987095,52.940313],[13.983496,52.942232],[13.980721,52.945116],[13.978041,52.949003],[13.978452,52.949596],[13.980893,52.950468],[13.982053,52.951574],[13.982044,52.952389],[13.980348,52.954066],[13.980315,52.954898],[13.985819,52.958834],[13.988528,52.959897],[13.991113,52.959966],[13.991372,52.960683],[13.988888,52.962355],[13.984869,52.963216],[13.985934,52.964969],[13.985146,52.966012],[13.983144,52.967132],[13.981321,52.967528],[13.980431,52.967093],[13.979983,52.967559],[13.976654,52.967355],[13.973532,52.964813],[13.971312,52.964069],[13.970179,52.964104],[13.964233,52.961439],[13.962637,52.959929],[13.96347,52.958423],[13.959488,52.95504],[13.957715,52.955731],[13.955448,52.95481],[13.954668,52.955351],[13.951875,52.955261],[13.95078,52.955668],[13.952112,52.956867],[13.951752,52.956967],[13.949268,52.955156],[13.943966,52.9551],[13.941682,52.955567],[13.942414,52.956618],[13.942051,52.957413],[13.941234,52.957683],[13.941622,52.95843],[13.94399,52.959042],[13.947934,52.961178],[13.950727,52.960842],[13.953144,52.96135],[13.945288,52.964709],[13.946571,52.965013],[13.945219,52.965675],[13.944061,52.9661],[13.943118,52.965764],[13.938049,52.97015],[13.936792,52.972774],[13.939279,52.973215],[13.938787,52.974581],[13.93993,52.974778],[13.937764,52.977759],[13.937544,52.976675],[13.935311,52.976123],[13.935327,52.976902],[13.933889,52.978306],[13.934337,52.97943],[13.931931,52.979818],[13.931784,52.980114],[13.931259,52.979586],[13.929321,52.97961],[13.926978,52.979078],[13.926909,52.982379],[13.93105,52.983354],[13.918268,52.980483],[13.914488,52.982457],[13.912561,52.981142],[13.912304,52.982502],[13.912755,52.982722],[13.912258,52.983499],[13.910948,52.98256],[13.906563,52.982491],[13.903014,52.982844],[13.902898,52.982406],[13.904945,52.981388],[13.909825,52.98001],[13.909454,52.979583],[13.910496,52.978263],[13.911546,52.97866],[13.912596,52.977162],[13.911775,52.976762],[13.911249,52.977138],[13.910376,52.976773],[13.908979,52.977712],[13.901202,52.976327],[13.900278,52.973306],[13.887268,52.97474],[13.887732,52.976711],[13.881548,52.976247],[13.88178,52.977567],[13.88136,52.977582],[13.869915,52.974757],[13.862018,52.973583],[13.858045,52.974968],[13.856772,52.978283],[13.85588,52.979558],[13.854273,52.980257],[13.853609,52.981966],[13.852129,52.983156],[13.852198,52.984453],[13.851403,52.985578],[13.850168,52.985116],[13.847327,52.985367],[13.844122,52.986131],[13.843552,52.986744],[13.825114,52.98874],[13.820818,52.987591],[13.823636,53.003117],[13.828469,53.020496],[13.832301,53.01981],[13.83276,53.019042],[13.833516,53.018868],[13.833507,53.018236],[13.836473,53.017931],[13.837138,53.016944],[13.836366,53.016634],[13.837399,53.015753],[13.838242,53.015911],[13.83881,53.016805],[13.843385,53.016516],[13.844258,53.017054],[13.846665,53.016331],[13.849298,53.017105],[13.851745,53.016659],[13.854523,53.017272],[13.854244,53.017613],[13.853015,53.017489],[13.852159,53.019785],[13.853464,53.022794],[13.855028,53.023122],[13.855225,53.023483],[13.854582,53.023991],[13.85244,53.024181],[13.851605,53.024633],[13.853776,53.027051],[13.85416,53.028384],[13.854008,53.030904],[13.853214,53.032295],[13.857052,53.033636],[13.855849,53.035427],[13.858359,53.035463],[13.858077,53.038278],[13.859273,53.038569],[13.861071,53.039736],[13.869667,53.040438],[13.872079,53.040249],[13.873313,53.04111],[13.873752,53.042311],[13.875588,53.044148],[13.877643,53.045196],[13.880511,53.047476],[13.883149,53.047374],[13.884392,53.049475],[13.884543,53.05145],[13.885404,53.052984],[13.878286,53.054318],[13.875284,53.05445],[13.871696,53.055363],[13.865558,53.05593],[13.86097,53.05746],[13.854494,53.058542],[13.844004,53.058684],[13.839928,53.056919],[13.837303,53.056567],[13.819481,53.058096],[13.816901,53.057795],[13.815737,53.057163]]]}}]}
