{
  "type": "FeatureCollection",
  "_comment": "SYNTHETIC FIXTURE — coordinates are at (0,0), deliberately chosen off the coast of west Africa ('null island') so this cannot be mistaken for a real pilot-region boundary. Real boundary acquisition (candidate: BKG administrative boundaries) is unstarted work, not yet in docs/data/sources.md — see roadmap §2.3. CRS is EPSG:4326, reprojected to EPSG:25832 by 02_reproject.sh exactly like a real boundary source would be.",
  "crs": { "type": "name", "properties": { "name": "urn:ogc:def:crs:OGC:1.3:CRS84" } },
  "features": [
    {
      "type": "Feature",
      "properties": { "pilot_region": "fixture-region" },
      "geometry": {
        "type": "Polygon",
        "coordinates": [
          [
            [0.0, 0.0],
            [0.01, 0.0],
            [0.01, 0.01],
            [0.0, 0.01],
            [0.0, 0.0]
          ]
        ]
      }
    }
  ]
}
